BEIDOU-3 M15 (C34)      
1 43648U 18078B   25070.83648937 -.00000067  00000+0  00000+0 0  9993
2 43648  54.4958 316.1461 0005194  29.6808 330.4026  1.86232242 43562
BEIDOU-3 G1 (C59)       
1 43683U 18085A   25071.56987333 -.00000291  00000+0  00000+0 0  9996
2 43683   2.8621 100.6633 0002953 352.8342  62.1066  1.00269788 23434
COSMOS 2529 (757)       
1 43687U 18086A   25070.49164271 -.00000020  00000+0  00000+0 0  9990
2 43687  64.2949 208.2233 0007841 257.1613 102.7103  2.13102019 49421
BEIDOU-3 M17 (C36)      
1 43706U 18093A   25070.99038020 -.00000040  00000+0  00000+0 0  9999
2 43706  54.1908 197.9767 0007089 290.2582  69.6163  1.86228436 42914
BEIDOU-3 M18 (C37)      
1 43707U 18093B   25070.31659708 -.00000042  00000+0  00000+0 0  9990
2 43707  54.1918 197.9912 0005898 330.6963  29.2210  1.86229833 42913
GPS BIII-1  (PRN 04)    
1 43873U 18109A   25071.56908534  .00000032  00000+0  00000+0 0  9992
2 43873  55.4151 110.4168 0033076 197.1662 335.3652  2.00566146 45815
BEIDOU-3 IGSO-1 (C38)   
1 44204U 19023A   25071.48191762 -.00000202  00000+0  00000+0 0  9995
2 44204  58.0420  42.4197 0022282 228.1990 192.8472  1.00274544  2584
BEIDOU-2 G8 (C01)       
1 44231U 19027A   25071.54905850 -.00000260  00000+0  00000+0 0  9991
2 44231   1.4470  74.5900 0006074 247.5901 190.3368  1.00276458 21457
COSMOS 2534 (758)       
1 44299U 19030A   25070.31442910 -.00000019  00000+0  00000+0 0  9998
2 44299  64.3684 208.2078 0009772 284.1255  74.0628  2.13102263 45051
BEIDOU-3 IGSO-2 (C39)   
1 44337U 19035A   25064.85101839 -.00000152  00000+0  00000+0 0  9998
2 44337  55.1994 162.9742 0036515 201.4116 222.6079  1.00257794 20973
GPS BIII-2  (PRN 18)    
1 44506U 19056A   25071.20395166 -.00000111  00000+0  00000+0 0  9999
2 44506  55.8061 349.4763 0049065 194.0427 337.0990  2.00560863 40806
BEIDOU-3 M24 (C46)      
1 44542U 19061A   25070.92405260 -.00000040  00000+0  00000+0 0  9991
2 44542  54.4186 198.3185 0007991  13.0297 346.9411  1.86229031 37181
BEIDOU-3 M23 (C45)      
1 44543U 19061B   25071.53127521 -.00000037  00000+0  00000+0 0  9997
2 44543  54.4169 198.2665 0004656   5.8529 313.9010  1.86229325 37193
BEIDOU-3 IGSO-3 (C40)   
1 44709U 19073A   25070.98826671 -.00000146  00000+0  00000+0 0  9995
2 44709  55.5909 285.8733 0041886 181.8361 178.1988  1.00275146 19828
BEIDOU-3 M22 (C44)      
1 44793U 19078A   25070.76757942 -.00000068  00000+0  00000+0 0  9996
2 44793  54.3472 316.0459 0007206  28.7179 331.3754  1.86232076 36034
BEIDOU-3 M21 (C43)      
1 44794U 19078B   25070.89880616 -.00000068  00000+0  00000+0 0  9996
2 44794  54.3206 316.0117 0005239  23.0401 337.0374  1.86227805 36047
COSMOS 2544 (759)       
1 44850U 19088A   25069.86846169  .00000050  00000+0  00000+0 0  9990
2 44850  65.3137  89.2220 0015644 260.4515  99.4298  2.13102072 40849
BEIDOU-3 M19 (C41)      
1 44864U 19090A   25068.58544280  .00000008  00000+0  00000+0 0  9998
2 44864  56.1506  78.1954 0020125 286.3786 155.6157  1.86231518 35570
BEIDOU-3 M20 (C42)      
1 44865U 19090B   25071.55672146  .00000009  00000+0  00000+0 0  9994
2 44865  56.1549  78.1303 0017781 298.0288  65.7411  1.86231605 35624
BEIDOU-3 G2 (C60)       
1 45344U 20017A   25071.55793778 -.00000153  00000+0  00000+0 0  9994
2 45344   2.7087  38.2188 0003142 307.2318 105.8812  1.00272165 18637
COSMOS 2545 (760)       
1 45358U 20018A   25071.00365067 -.00000064  00000+0  00000+0 0  9997
2 45358  64.6193 328.6207 0008205 254.8259 105.1339  2.13102563 38819
BEIDOU-3 G3 (C61)       
1 45807U 20040A   25071.50600464 -.00000367  00000+0  00000+0 0  9995
2 45807   1.3356  61.3465 0003365 317.0931  84.6553  1.00270449 17444
GPS BIII-3  (PRN 23)    
1 45854U 20041A   25071.55098736 -.00000057  00000+0  00000+0 0  9992
2 45854  56.3453  46.9104 0051176 199.8492 163.9956  2.00568336 34784
GALAXY 30 (WAAS/PRN 135)
1 46114U 20056C   25071.16014762  .00000022  00000+0  00000+0 0  9993
2 46114   0.0161 130.5053 0001941 229.1461 103.0286  1.00271578 16663
COSMOS 2547 (705K)      
1 46805U 20075A   25069.31232953 -.00000011  00000+0  00000+0 0  9998
2 46805  64.5983 207.9621 0006531 232.7139 127.1893  2.13103032 34024
GPS BIII-4  (PRN 14)    
1 46826U 20078A   25070.82504582 -.00000013  00000+0  00000+0 0  9994
2 46826  54.0905 229.5350 0055173 198.9958 331.6642  2.00558790 32238
GPS BIII-5  (PRN 11)    
1 48859U 21054A   25071.48004840 -.00000112  00000+0  00000+0 0  9992
2 48859  55.3367 350.9920 0018706 230.7466 241.5256  2.00569836 27499
QZS-1R (QZSS/PRN 196)   
1 49336U 21096A   25071.35658403 -.00000244  00000+0  00000+0 0  9991
2 49336  36.5006  86.4656 0749930 269.7087  78.1673  1.00287055 12376
GSAT0223 (GALILEO 27)   
1 49809U 21116A   25067.39466414 -.00000111  00000+0  00000+0 0  9990
2 49809  57.2776 354.2471 0002103 279.8168 172.9328  1.70475345 20245
GSAT0224 (GALILEO 28)   
1 49810U 21116B   25065.47774226 -.00000104  00000+0  00000+0 0  9994
2 49810  57.2788 354.2974 0001886 295.2065 173.6316  1.70475249 20230
COSMOS 2557 (706K)      
1 52984U 22075A   25070.41792007 -.00000070  00000+0  00000+0 0  9994
2 52984  64.5535 330.7466 0012051 285.7008  74.2125  2.13101884 20850
COSMOS 2559 (707K)      
1 54031U 22130A   25071.30014564 -.00000068  00000+0  00000+0 0  9992
2 54031  64.5253 330.8240 0005499 231.0596 128.9401  2.13101316 18847
COSMOS 2564 (761)       
1 54377U 22161A   25070.08165428 -.00000018  00000+0  00000+0 0  9994
2 54377  64.7398 208.0893 0008811 209.9437 149.9664  2.13101992 17765
GPS BIII-6  (PRN 28)    
1 55268U 23009A   25055.80589204  .00000001  00000+0  00000+0 0  9992
2 55268  55.0899 167.2640 0000971  39.5557 308.9006  2.00545614 15662
BEIDOU-3 G4 (C62)       
1 56564U 23066A   25071.50242977 -.00000127  00000+0  00000+0 0  9993
2 56564   1.4584 290.3840 0001655 221.4006 359.4877  1.00271607  6764
NVS-01 (IRNSS-1J)       
1 56759U 23076A   25071.49634815 -.00000356  00000+0  00000+0 0  9998
2 56759   3.3103 259.7649 0007547  29.5521 189.2582  1.00270324  6485
COSMOS 2569 (703K)      
1 57517U 23114A   25070.56622275  .00000049  00000+0  00000+0 0  9996
2 57517  65.0448  88.2516 0012880 292.8220  67.0985  2.13104073 12401
BEIDOU-3 M28 (C50)      
1 58654U 23207A   25069.36901947  .00000008  00000+0  00000+0 0  9999
2 58654  55.3382  78.0005 0004932 293.4093  66.5805  1.86232025  8203
BEIDOU-3 M26 (C48)      
1 58655U 23207B   25071.31644757  .00000007  00000+0  00000+0 0  9990
2 58655  55.3420  77.9203 0005668 279.9856  79.9891  1.86231573  8220
GSAT0225 (GALILEO 29)   
1 59598U 24079A   25070.66325619  .00000018  00000+0  00000+0 0  9997
2 59598  54.8382 114.0181 0003124 247.3401 155.6748  1.70475106  5434
GSAT0227 (GALILEO 30)   
1 59600U 24079C   25071.36321118  .00000021  00000+0  00000+0 0  9993
2 59600  54.8339 113.9989 0000411 185.7657 174.3205  1.70475010  5494
GSAT0232 (GALILEO 32)   
1 61182U 24167A   25071.52786433  .00000003  00000+0  00000+0 0  9992
2 61182  55.3414 233.9769 0002429 183.0437 113.2803  1.70474100  3009
GSAT0226 (GALILEO 31)   
1 61183U 24167B   25071.45203918  .00000004  00000+0  00000+0 0  9998
2 61183  55.3401 233.9847 0001938 124.1505 238.1922  1.70474196  2989
BEIDOU-3 M25 (C47)      
1 61186U 24168B   25070.39246705 -.00000071  00000+0  00000+0 0  9990
2 61186  54.8737 318.2739 0004498 308.2264 270.5550  1.86230175  3168
BEIDOU-3 M27 (C49)      
1 61187U 24168C   25071.21502804 -.00000071  00000+0  00000+0 0  9998
2 61187  54.8686 318.2303 0002899   8.7935 176.3208  1.86230414   659
GPS BIII-7  (PRN 01)    
1 62339U 24242A   25067.46405909 -.00000113  00000+0  00000+0 0  9998
2 62339  54.9905 353.0382 0004798 320.2659 251.8636  2.00556540  1915
NVS-02 (IRNSS-1K)       
1 62850U 25020A   25071.12024061  .00004126 -52366-6  22067-3 0  9993
2 62850  20.9614  67.3528 7394133 206.0309  81.2523  2.17145106   925
